[{"OBJECT_NAME":"STARLINK-6283","OBJECT_ID":"2023-061AJ","EPOCH":"2026-03-09T09:58:56.047008","MEAN_MOTION":15.02521645,"ECCENTRICITY":0.00010296,"INCLINATION":43.0028,"RA_OF_ASC_NODE":185.9368,"ARG_OF_PERICENTER":250.257,"MEAN_ANOMALY":109.8161,"EPHEMERIS_TYPE":0,"CLASSIFICATION_TYPE":"U","NORAD_CAT_ID":56406,"ELEMENT_SET_NO":999,"REV_AT_EPOCH":15686,"BSTAR":2.9084906e-5,"MEAN_MOTION_DOT":1.89e-6,"MEAN_MOTION_DDOT":0},{"OBJECT_NAME":"FENGYUN 1C DEB","OBJECT_ID":"1999-025BBV","EPOCH":"2026-03-07T05:09:56.553696","MEAN_MOTION":14.80587574,"ECCENTRICITY":0.0186084,"INCLINATION":97.8242,"RA_OF_ASC_NODE":327.5507,"ARG_OF_PERICENTER":327.1548,"MEAN_ANOMALY":189.2508,"EPHEMERIS_TYPE":0,"CLASSIFICATION_TYPE":"U","NORAD_CAT_ID":30979,"ELEMENT_SET_NO":999,"REV_AT_EPOCH":371,"BSTAR":0.0016537,"MEAN_MOTION_DOT":0.0001706,"MEAN_MOTION_DDOT":0}]
